{
  "type": "FeatureCollection",
  "features": [
    {
      "type": "Feature",
      "properties": {
        "norad_id": 30274,
        "name": "FENGYUN 1C DEB",
        "group": "fengyun-1c-debris",
        "lat": -14.49436745443996,
        "lon": 127.32796651244249,
        "alt_km": 727.4475736059758,
        "timestamp": "2025-12-21T07:34:34.792162+00:00",
        "meta_object_name": "FENGYUN 1C DEB",
        "meta_object_id": "1999-025YK",
        "meta_epoch": "2025-12-20T20:45:37.244160",
        "meta_mean_motion": 14.51772189,
        "meta_eccentricity": 0.00048016,
        "meta_inclination": 99.3019,
        "meta_ra_of_asc_node": 124.4012,
        "meta_arg_of_pericenter": 195.6706,
        "meta_mean_anomaly": 315.7146,
        "meta_ephemeris_type": 0,
        "meta_classification_type": "U",
        "meta_norad_cat_id": 30274,
        "meta_element_set_no": 999,
        "meta_rev_at_epoch": 98328,
        "meta_bstar": 0.0015882932,
        "meta_mean_motion_dot": 6.338e-05,
        "meta_mean_motion_ddot": 0,
        "tle_line1": "1 30274U 99025YK  25354.86501440  .00006338  00000+0  15883-2 0  9994",
        "tle_line2": "2 30274  99.3019 124.4012 0004801 195.6706 315.7146 14.51772189983282"
      },
      "geometry": {
        "type": "Point",
        "coordinates": [
          127.32796651244249,
          -14.49436745443996
        ]
      }
    },
    {
      "type": "Feature",
      "properties": {
        "norad_id": 30275,
        "name": "FENGYUN 1C DEB",
        "group": "fengyun-1c-debris",
        "lat": 76.7862874597961,
        "lon": -59.99524014689308,
        "alt_km": 719.8399510591216,
        "timestamp": "2025-12-21T07:34:34.792171+00:00",
        "meta_object_name": "FENGYUN 1C DEB",
        "meta_object_id": "1999-025YL",
        "meta_epoch": "2025-12-20T04:40:14.226240",
        "meta_mean_motion": 14.4539576,
        "meta_eccentricity": 0.00398543,
        "meta_inclination": 98.6281,
        "meta_ra_of_asc_node": 78.5753,
        "meta_arg_of_pericenter": 164.9737,
        "meta_mean_anomaly": 225.3907,
        "meta_ephemeris_type": 0,
        "meta_classification_type": "U",
        "meta_norad_cat_id": 30275,
        "meta_element_set_no": 999,
        "meta_rev_at_epoch": 98192,
        "meta_bstar": 0.0013991754,
        "meta_mean_motion_dot": 4.927e-05,
        "meta_mean_motion_ddot": 0,
        "tle_line1": "1 30275U 99025YL  25354.19460910  .00004927  00000+0  13992-2 0  9998",
        "tle_line2": "2 30275  98.6281  78.5753 0039854 164.9737 225.3907 14.45395760981925"
      },
      "geometry": {
        "type": "Point",
        "coordinates": [
          -59.99524014689308,
          76.7862874597961
        ]
      }
    },
    {
      "type": "Feature",
      "properties": {
        "norad_id": 30276,
        "name": "FENGYUN 1C DEB",
        "group": "fengyun-1c-debris",
        "lat": -18.253921390622683,
        "lon": -115.95353200501289,
        "alt_km": 818.0757772609941,
        "timestamp": "2025-12-21T07:34:34.792180+00:00",
        "meta_object_name": "FENGYUN 1C DEB",
        "meta_object_id": "1999-025YM",
        "meta_epoch": "2025-12-20T03:43:42.086208",
        "meta_mean_motion": 14.2706619,
        "meta_eccentricity": 0.00243101,
        "meta_inclination": 98.8593,
        "meta_ra_of_asc_node": 65.8204,
        "meta_arg_of_pericenter": 70.0933,
        "meta_mean_anomaly": 290.2863,
        "meta_ephemeris_type": 0,
        "meta_classification_type": "U",
        "meta_norad_cat_id": 30276,
        "meta_element_set_no": 999,
        "meta_rev_at_epoch": 97636,
        "meta_bstar": 0.00084714463,
        "meta_mean_motion_dot": 2.025e-05,
        "meta_mean_motion_ddot": 0,
        "tle_line1": "1 30276U 99025YM  25354.15534822  .00002025  00000+0  84714-3 0  9997",
        "tle_line2": "2 30276  98.8593  65.8204 0024310  70.0933 290.2863 14.27066190976366"
      },
      "geometry": {
        "type": "Point",
        "coordinates": [
          -115.95353200501289,
          -18.253921390622683
        ]
      }
    },
    {
      "type": "Feature",
      "properties": {
        "norad_id": 30277,
        "name": "FENGYUN 1C DEB",
        "group": "fengyun-1c-debris",
        "lat": -33.65981638543158,
        "lon": -120.02662043085908,
        "alt_km": 807.8598388867194,
        "timestamp": "2025-12-21T07:34:34.792189+00:00",
        "meta_object_name": "FENGYUN 1C DEB",
        "meta_object_id": "1999-025YN",
        "meta_epoch": "2025-12-19T16:13:27.575040",
        "meta_mean_motion": 14.13611169,
        "meta_eccentricity": 0.012406,
        "meta_inclination": 98.9729,
        "meta_ra_of_asc_node": 64.3678,
        "meta_arg_of_pericenter": 158.3816,
        "meta_mean_anomaly": 354.7763,
        "meta_ephemeris_type": 0,
        "meta_classification_type": "U",
        "meta_norad_cat_id": 30277,
        "meta_element_set_no": 999,
        "meta_rev_at_epoch": 96887,
        "meta_bstar": 0.00090874,
        "meta_mean_motion_dot": 1.8e-05,
        "meta_mean_motion_ddot": 0,
        "tle_line1": "1 30277U 99025YN  25353.67601360  .00001800  00000+0  90874-3 0  9990",
        "tle_line2": "2 30277  98.9729  64.3678 0124060 158.3816 354.7763 14.13611169968870"
      },
      "geometry": {
        "type": "Point",
        "coordinates": [
          -120.02662043085908,
          -33.65981638543158
        ]
      }
    },
    {
      "type": "Feature",
      "properties": {
        "norad_id": 30279,
        "name": "FENGYUN 1C DEB",
        "group": "fengyun-1c-debris",
        "lat": -27.905153923424706,
        "lon": -64.7299503184652,
        "alt_km": 780.1332496364248,
        "timestamp": "2025-12-21T07:34:34.792198+00:00",
        "meta_object_name": "FENGYUN 1C DEB",
        "meta_object_id": "1999-025YQ",
        "meta_epoch": "2025-12-20T14:00:13.821120",
        "meta_mean_motion": 14.23128703,
        "meta_eccentricity": 0.0219833,
        "meta_inclination": 99.1509,
        "meta_ra_of_asc_node": 289.6118,
        "meta_arg_of_pericenter": 50.3296,
        "meta_mean_anomaly": 134.824,
        "meta_ephemeris_type": 0,
        "meta_classification_type": "U",
        "meta_norad_cat_id": 30279,
        "meta_element_set_no": 999,
        "meta_rev_at_epoch": 97722,
        "meta_bstar": 0.00056206,
        "meta_mean_motion_dot": 1.576e-05,
        "meta_mean_motion_ddot": 0,
        "tle_line1": "1 30279U 99025YQ  25354.58349330  .00001576  00000+0  56206-3 0  9990",
        "tle_line2": "2 30279  99.1509 289.6118 0219833  50.3296 134.8240 14.23128703977222"
      },
      "geometry": {
        "type": "Point",
        "coordinates": [
          -64.7299503184652,
          -27.905153923424706
        ]
      }
    },
    {
      "type": "Feature",
      "properties": {
        "norad_id": 30280,
        "name": "FENGYUN 1C DEB",
        "group": "fengyun-1c-debris",
        "lat": 58.45115339620132,
        "lon": -30.23689715741741,
        "alt_km": 917.2188762900396,
        "timestamp": "2025-12-21T07:34:34.792208+00:00",
        "meta_object_name": "FENGYUN 1C DEB",
        "meta_object_id": "1999-025YR",
        "meta_epoch": "2025-12-20T21:16:58.180800",
        "meta_mean_motion": 13.98331891,
        "meta_eccentricity": 0.00800602,
        "meta_inclination": 98.775,
        "meta_ra_of_asc_node": 343.9233,
        "meta_arg_of_pericenter": 306.8016,
        "meta_mean_anomaly": 114.1176,
        "meta_ephemeris_type": 0,
        "meta_classification_type": "U",
        "meta_norad_cat_id": 30280,
        "meta_element_set_no": 999,
        "meta_rev_at_epoch": 96520,
        "meta_bstar": 4.5607815e-05,
        "meta_mean_motion_dot": 2.4e-07,
        "meta_mean_motion_ddot": 0,
        "tle_line1": "1 30280U 99025YR  25354.88678450  .00000024  00000+0  45608-4 0  9995",
        "tle_line2": "2 30280  98.7750 343.9233 0080060 306.8016 114.1176 13.98331891965205"
      },
      "geometry": {
        "type": "Point",
        "coordinates": [
          -30.23689715741741,
          58.45115339620132
        ]
      }
    },
    {
      "type": "Feature",
      "properties": {
        "norad_id": 30281,
        "name": "FENGYUN 1C DEB",
        "group": "fengyun-1c-debris",
        "lat": -63.42555534484799,
        "lon": 2.8531281252925447,
        "alt_km": 862.3966536023681,
        "timestamp": "2025-12-21T07:34:34.792217+00:00",
        "meta_object_name": "FENGYUN 1C DEB",
        "meta_object_id": "1999-025YS",
        "meta_epoch": "2025-12-20T21:44:12.277824",
        "meta_mean_motion": 14.10481178,
        "meta_eccentricity": 0.00281652,
        "meta_inclination": 98.7574,
        "meta_ra_of_asc_node": 344.5053,
        "meta_arg_of_pericenter": 213.2624,
        "meta_mean_anomaly": 161.0374,
        "meta_ephemeris_type": 0,
        "meta_classification_type": "U",
        "meta_norad_cat_id": 30281,
        "meta_element_set_no": 999,
        "meta_rev_at_epoch": 97336,
        "meta_bstar": 0.00019669213,
        "meta_mean_motion_dot": 3.08e-06,
        "meta_mean_motion_ddot": 0,
        "tle_line1": "1 30281U 99025YS  25354.90569766  .00000308  00000+0  19669-3 0  9990",
        "tle_line2": "2 30281  98.7574 344.5053 0028165 213.2624 161.0374 14.10481178973367"
      },
      "geometry": {
        "type": "Point",
        "coordinates": [
          2.8531281252925447,
          -63.42555534484799
        ]
      }
    }
  ]
}